$$SOE
2459580.500000000, A.D. 2022-Jan-01 00:00:00.0000, 1.065459302043150E+07, 1.951569677572348E+08, -4.112594216336773E+07,
2459587.500000000, A.D. 2022-Jan-08 00:00:00.0000, -1.724904293776232E+06, 1.975757230429658E+08, -4.517072287508642E+07,
2459594.500000000, A.D. 2022-Jan-15 00:00:00.0000, -1.409487133676082E+07, 1.988423815856355E+08, -4.895223613479623E+07,
2459601.500000000, A.D. 2022-Jan-22 00:00:00.0000, -2.638614780556937E+07, 1.989927780405190E+08, -5.245904947615314E+07,
2459608.500000000, A.D. 2022-Jan-29 00:00:00.0000, -3.853434008474292E+07, 1.980614250893947E+08, -5.568077731620097E+07,
2459615.500000000, A.D. 2022-Feb-05 00:00:00.0000, -5.047881872199442E+07, 1.960815553515649E+08, -5.860780661907803E+07,
2459622.500000000, A.D. 2022-Feb-12 00:00:00.0000, -6.216184184160370E+07, 1.930852260939186E+08, -6.123107349270273E+07,
2459629.500000000, A.D. 2022-Feb-19 00:00:00.0000, -7.352777876537120E+07, 1.891034746780272E+08, -6.354187949425583E+07,
2459636.500000000, A.D. 2022-Feb-26 00:00:00.0000, -8.452241233430862E+07, 1.841665157860139E+08, -6.553173926701887E+07,
2459643.500000000, A.D. 2022-Mar-05 00:00:00.0000, -9.509230045375684E+07, 1.783039763418616E+08, -6.719225332115012E+07,
2459650.500000000, A.D. 2022-Mar-12 00:00:00.0000, -1.051841801085906E+08, 1.715451684707552E+08, -6.851500140547846E+07,
2459657.500000000, A.D. 2022-Mar-19 00:00:00.0000, -1.147443994658578E+08, 1.639194043235342E+08, -6.949145329331975E+07,
2459664.500000000, A.D. 2022-Mar-26 00:00:00.0000, -1.237183655184326E+08, 1.554563598236389E+08, -7.011289504697135E+07,
2459671.500000000, A.D. 2022-Apr-02 00:00:00.0000, -1.320499961686335E+08, 1.461864977875720E+08, -7.037037003296527E+07,
2459678.500000000, A.D. 2022-Apr-09 00:00:00.0000, -1.396811667974238E+08, 1.361415648460976E+08, -7.025463523987618E+07,
2459685.500000000, A.D. 2022-Apr-16 00:00:00.0000, -1.465511426914987E+08, 1.253551819412303E+08, -6.975613486481689E+07,
2459692.500000000, A.D. 2022-Apr-23 00:00:00.0000, -1.525959920816187E+08, 1.138635544461619E+08, -6.886499476914325E+07,
2459699.500000000, A.D. 2022-Apr-30 00:00:00.0000, -1.577479776448269E+08, 1.017063320595887E+08, -6.757104402235514E+07,
2459706.500000000, A.D. 2022-May-07 00:00:00.0000, -1.619349231901813E+08, 8.892765843676743E+07, -6.586387340907925E+07,
2459713.500000000, A.D. 2022-May-14 00:00:00.0000, -1.650795600407439E+08, 7.557746771850295E+07, -6.373294465377331E+07,
2459720.500000000, A.D. 2022-May-21 00:00:00.0000, -1.670988710816817E+08, 6.171309849167855E+07, -6.116777039627648E+07,
2459727.500000000, A.D. 2022-May-28 00:00:00.0000, -1.679034650629359E+08, 4.740131388176873E+07, -5.815819433022292E+07,
2459734.500000000, A.D. 2022-Jun-04 00:00:00.0000, -1.673970391158682E+08, 3.272084158319996E+07, -5.469481382175475E+07,
2459741.500000000, A.D. 2022-Jun-11 00:00:00.0000, -1.654760296825133E+08, 1.776557674720304E+07, -5.076960569046943E+07,
2459748.500000000, A.D. 2022-Jun-18 00:00:00.0000, -1.620296194552337E+08, 2.648621619962120E+06, -4.637684184347559E+07,
2459755.500000000, A.D. 2022-Jun-25 00:00:00.0000, -1.569403744212438E+08, -1.249263767017127E+07, -4.151441755000383E+07,
2459762.500000000, A.D. 2022-Jul-02 00:00:00.0000, -1.500859510153264E+08, -2.749021034738598E+07, -3.618576352186639E+07,
2459769.500000000, A.D. 2022-Jul-09 00:00:00.0000, -1.413425656633122E+08, -4.213777659805135E+07, -3.040257358930098E+07,
2459776.500000000, A.D. 2022-Jul-16 00:00:00.0000, -1.305912876730616E+08, -5.618156812067634E+07, -2.418864542712784E+07,
2459783.500000000, A.D. 2022-Jul-23 00:00:00.0000, -1.177287152300558E+08, -6.931028060599309E+07, -1.758517757940808E+07,
2459790.500000000, A.D. 2022-Jul-30 00:00:00.0000, -1.026841602740480E+08, -8.114532863173649E+07, -1.065782804355172E+07,
2459797.500000000, A.D. 2022-Aug-06 00:00:00.0000, -8.544585458157147E+07, -9.123439669498149E+07, -3.505577318872228E+06,
2459804.500000000, A.D. 2022-Aug-13 00:00:00.0000, -6.609823323330119E+07, -9.905392308424617E+07, 3.729299151183162E+06,
2459811.500000000, A.D. 2022-Aug-20 00:00:00.0000, -4.486967649825069E+07, -1.040296397517319E+08, 1.085238778060227E+07,
2459818.500000000, A.D. 2022-Aug-27 00:00:00.0000, -2.218328872373590E+07, -1.055867228243752E+08, 1.761413307428957E+07,
2459825.500000000, A.D. 2022-Sep-03 00:00:00.0000, 1.308309848713434E+06, -1.032376908903505E+08, 2.371988944112569E+07,
2459832.500000000, A.D. 2022-Sep-10 00:00:00.0000, 2.473454076195831E+07, -9.670033984741294E+07, 2.885986178562491E+07,
2459839.500000000, A.D. 2022-Sep-17 00:00:00.0000, 4.709180337496857E+07, -8.600984249937321E+07, 3.275845682916110E+07,
2459846.500000000, A.D. 2022-Sep-24 00:00:00.0000, 6.739678639577350E+07, -7.156807789058816E+07, 3.522875506317968E+07,
2459853.500000000, A.D. 2022-Oct-01 00:00:00.0000, 8.485516215082519E+07, -5.409040039201728E+07, 3.620813180681270E+07,
2459860.500000000, A.D. 2022-Oct-08 00:00:00.0000, 9.897322457088102E+07, -3.446665427721963E+07, 3.575836222202866E+07,
2459867.500000000, A.D. 2022-Oct-15 00:00:00.0000, 1.095748389541651E+08, -1.360121025762928E+07, 3.403422999958378E+07,
2459874.500000000, A.D. 2022-Oct-22 00:00:00.0000, 1.167419116803366E+08, 7.706308555347951E+06, 3.123973228364279E+07,
2459881.500000000, A.D. 2022-Oct-29 00:00:00.0000, 1.207244274676615E+08, 2.881736147749298E+07, 2.758992136899772E+07,
2459888.500000000, A.D. 2022-Nov-05 00:00:00.0000, 1.218576804354708E+08, 4.925998363648878E+07, 2.328627764643178E+07,
2459895.500000000, A.D. 2022-Nov-12 00:00:00.0000, 1.205028229844873E+08, 6.870667386791912E+07, 1.850491497076304E+07,
2459902.500000000, A.D. 2022-Nov-19 00:00:00.0000, 1.170111014360091E+08, 8.694333558475111E+07, 1.339350174066183E+07,
2459909.500000000, A.D. 2022-Nov-26 00:00:00.0000, 1.117058001278072E+08, 1.038395556869366E+08, 8.072880632751465E+06,
2459916.500000000, A.D. 2022-Dec-03 00:00:00.0000, 1.048753807317910E+08, 1.193241973966356E+08, 2.640647651304461E+06,
2459923.500000000, A.D. 2022-Dec-10 00:00:00.0000, 9.677287835503447E+07, 1.333668890109757E+08, -2.824833582798980E+06,
2459930.500000000, A.D. 2022-Dec-17 00:00:00.0000, 8.761838612698568E+07, 1.459646077107314E+08, -8.260695004172847E+06,
2459937.500000000, A.D. 2022-Dec-24 00:00:00.0000, 7.760279605442648E+07, 1.571322197563224E+08, -1.361636637393383E+07,
2459944.500000000, A.D. 2022-Dec-31 00:00:00.0000, 6.689181877470790E+07, 1.668959287052109E+08, -1.885095705014363E+07,
2459951.500000000, A.D. 2023-Jan-07 00:00:00.0000, 5.562980614008588E+07, 1.752887972238002E+08, -2.393116295206498E+07,
2459958.500000000, A.D. 2023-Jan-14 00:00:00.0000, 4.394317603580751E+07, 1.823477217049221E+08, -2.882961390924609E+07,
2459965.500000000, A.D. 2023-Jan-21 00:00:00.0000, 3.194338470500135E+07, 1.881114115662504E+08, -3.352357598976486E+07,
2459972.500000000, A.D. 2023-Jan-28 00:00:00.0000, 1.972946617499847E+07, 1.926190613539236E+08, -3.799393404009409E+07,
2459979.500000000, A.D. 2023-Feb-04 00:00:00.0000, 7.390184388790730E+06, 1.959095026485910E+08, -4.222439239092515E+07,
2459986.500000000, A.D. 2023-Feb-11 00:00:00.0000, -4.994148882407512E+06, 1.980206868309352E+08, -4.620084441860789E+07,
2459993.500000000, A.D. 2023-Feb-18 00:00:00.0000, -1.735013627512814E+07, 1.989893960040201E+08, -4.991087267370702E+07,
2460000.500000000, A.D. 2023-Feb-25 00:00:00.0000, -2.960998778950586E+07, 1.988511124146121E+08, -5.334335000464110E+07,
2460007.500000000, A.D. 2023-Mar-04 00:00:00.0000, -4.171040155290659E+07, 1.976399992991998E+08, -5.648811893992145E+07,
2460014.500000000, A.D. 2023-Mar-11 00:00:00.0000, -5.359159589713795E+07, 1.953889616534330E+08, -5.933573190717998E+07,
2460021.500000000, A.D. 2023-Mar-18 00:00:00.0000, -6.519646195909554E+07, 1.921297663440955E+08, -6.187723897531388E+07,
2460028.500000000, A.D. 2023-Mar-25 00:00:00.0000, -7.646981074689092E+07, 1.878932088489163E+08, -6.410401298933240E+07,
2460035.500000000, A.D. 2023-Apr-01 00:00:00.0000, -8.735769242703374E+07, 1.827093201577674E+08, -6.600760441537384E+07,
2460042.500000000, A.D. 2023-Apr-08 00:00:00.0000, -9.780676988649063E+07, 1.766076126915207E+08, -6.757961998426083E+07,
2460049.500000000, A.D. 2023-Apr-15 00:00:00.0000, -1.077637329404162E+08, 1.696173654683907E+08, -6.881162079753469E+07,
2460056.500000000, A.D. 2023-Apr-22 00:00:00.0000, -1.171747374992759E+08, 1.617679500669709E+08, -6.969503735047215E+07,
2460063.500000000, A.D. 2023-Apr-29 00:00:00.0000, -1.259848549268947E+08, 1.530892074719970E+08, -7.022109979844543E+07,
2460070.500000000, A.D. 2023-May-06 00:00:00.0000, -1.341375228289889E+08, 1.436118890626092E+08, -7.038078279871672E+07,
2460077.500000000, A.D. 2023-May-13 00:00:00.0000, -1.415739889603652E+08, 1.333681764703037E+08, -7.016476590682234E+07,
2460084.500000000, A.D. 2023-May-20 00:00:00.0000, -1.482327401291155E+08, 1.223923003801169E+08, -6.956341207109417E+07,
2460091.500000000, A.D. 2023-May-27 00:00:00.0000, -1.540489099044769E+08, 1.107212850054642E+08, -6.856676861911961E+07,
2460098.500000000, A.D. 2023-Jun-03 00:00:00.0000, -1.589536618577369E+08, 9.839585292309326E+07, -6.716459766144541E+07,
2460105.500000000, A.D. 2023-Jun-10 00:00:00.0000, -1.628735494516268E+08, 8.546153507470897E+07, -6.534644636070238E+07,
2460112.500000000, A.D. 2023-Jun-17 00:00:00.0000, -1.657298606147128E+08, 7.197004376465666E+07, -6.310177245845760E+07,
2460119.500000000, A.D. 2023-Jun-24 00:00:00.0000, -1.674379661307081E+08, 5.798098329715285E+07, -6.042014744479181E+07,
2460126.500000000, A.D. 2023-Jul-01 00:00:00.0000, -1.679067094011918E+08, 4.356399467789534E+07, -5.729156962741190E+07,
2460133.500000000, A.D. 2023-Jul-08 00:00:00.0000, -1.670379067361494E+08, 2.880145646841184E+07, -5.370693337107095E+07,
2460140.500000000, A.D. 2023-Jul-15 00:00:00.0000, -1.647260746140828E+08, 1.379188992524108E+07, -4.965872131619762E+07,
2460147.500000000, A.D. 2023-Jul-22 00:00:00.0000, -1.608585715849426E+08, -1.345750948566999E+06, -4.514201511988480E+07,
$$EOE